{
  "type": "FeatureCollection",
  "features": [
    {
      "type": "Feature",
      "properties": {
        "norad_id": 31005,
        "name": "FENGYUN 1C DEB",
        "group": "fengyun-1c-debris",
        "lat": 37.782057106313395,
        "lon": 123.09666206717269,
        "alt_km": 971.9357336943949,
        "timestamp": "2025-12-22T22:44:21.255448+00:00",
        "meta_object_name": "FENGYUN 1C DEB",
        "meta_object_id": "1999-025BCX",
        "meta_epoch": "2025-12-19T20:39:31.442112",
        "meta_mean_motion": 13.83298695,
        "meta_eccentricity": 0.0180827,
        "meta_inclination": 98.6131,
        "meta_ra_of_asc_node": 127.0159,
        "meta_arg_of_pericenter": 305.9328,
        "meta_mean_anomaly": 207.4359,
        "meta_ephemeris_type": 0,
        "meta_classification_type": "U",
        "meta_norad_cat_id": 31005,
        "meta_element_set_no": 999,
        "meta_rev_at_epoch": 94379,
        "meta_bstar": 0.00095824,
        "meta_mean_motion_dot": 1.153e-05,
        "meta_mean_motion_ddot": 0,
        "tle_line1": "1 31005U 99025BCX 25353.86078058  .00001153  00000+0  95824-3 0  9994",
        "tle_line2": "2 31005  98.6131 127.0159 0180827 305.9328 207.4359 13.83298695943796"
      },
      "geometry": {
        "type": "Point",
        "coordinates": [
          123.09666206717269,
          37.782057106313395
        ]
      }
    },
    {
      "type": "Feature",
      "properties": {
        "norad_id": 31007,
        "name": "FENGYUN 1C DEB",
        "group": "fengyun-1c-debris",
        "lat": -8.83013604913952,
        "lon": -10.253583184547772,
        "alt_km": 655.477481618529,
        "timestamp": "2025-12-22T22:44:21.255458+00:00",
        "meta_object_name": "FENGYUN 1C DEB",
        "meta_object_id": "1999-025BCZ",
        "meta_epoch": "2025-12-22T09:36:38.098944",
        "meta_mean_motion": 14.58828959,
        "meta_eccentricity": 0.00666645,
        "meta_inclination": 98.0879,
        "meta_ra_of_asc_node": 347.948,
        "meta_arg_of_pericenter": 8.2984,
        "meta_mean_anomaly": 351.9302,
        "meta_ephemeris_type": 0,
        "meta_classification_type": "U",
        "meta_norad_cat_id": 31007,
        "meta_element_set_no": 999,
        "meta_rev_at_epoch": 98235,
        "meta_bstar": 0.0024870754,
        "meta_mean_motion_dot": 0.00011967,
        "meta_mean_motion_ddot": 0,
        "tle_line1": "1 31007U 99025BCZ 25356.40044096  .00011967  00000+0  24871-2 0  9991",
        "tle_line2": "2 31007  98.0879 347.9480 0066664   8.2984 351.9302 14.58828959982357"
      },
      "geometry": {
        "type": "Point",
        "coordinates": [
          -10.253583184547772,
          -8.83013604913952
        ]
      }
    },
    {
      "type": "Feature",
      "properties": {
        "norad_id": 31009,
        "name": "FENGYUN 1C DEB",
        "group": "fengyun-1c-debris",
        "lat": -76.83735876530763,
        "lon": 34.5454448198454,
        "alt_km": 887.2821385941788,
        "timestamp": "2025-12-22T22:44:21.255468+00:00",
        "meta_object_name": "FENGYUN 1C DEB",
        "meta_object_id": "1999-025BDB",
        "meta_epoch": "2025-12-22T11:54:20.822112",
        "meta_mean_motion": 14.00367101,
        "meta_eccentricity": 0.00530683,
        "meta_inclination": 98.8966,
        "meta_ra_of_asc_node": 352.0568,
        "meta_arg_of_pericenter": 209.6888,
        "meta_mean_anomaly": 315.1225,
        "meta_ephemeris_type": 0,
        "meta_classification_type": "U",
        "meta_norad_cat_id": 31009,
        "meta_element_set_no": 999,
        "meta_rev_at_epoch": 95997,
        "meta_bstar": 6.3793383e-05,
        "meta_mean_motion_dot": 5.2e-07,
        "meta_mean_motion_ddot": 0,
        "tle_line1": "1 31009U 99025BDB 25356.49607433  .00000052  00000+0  63793-4 0  9993",
        "tle_line2": "2 31009  98.8966 352.0568 0053068 209.6888 315.1225 14.00367101959974"
      },
      "geometry": {
        "type": "Point",
        "coordinates": [
          34.5454448198454,
          -76.83735876530763
        ]
      }
    },
    {
      "type": "Feature",
      "properties": {
        "norad_id": 31010,
        "name": "FENGYUN 1C DEB",
        "group": "fengyun-1c-debris",
        "lat": -18.708550314117446,
        "lon": -36.67685791641116,
        "alt_km": 860.6854650345213,
        "timestamp": "2025-12-22T22:44:21.255479+00:00",
        "meta_object_name": "FENGYUN 1C DEB",
        "meta_object_id": "1999-025BDC",
        "meta_epoch": "2025-12-21T15:29:23.505216",
        "meta_mean_motion": 14.25926133,
        "meta_eccentricity": 0.0113533,
        "meta_inclination": 101.7249,
        "meta_ra_of_asc_node": 145.6192,
        "meta_arg_of_pericenter": 331.1393,
        "meta_mean_anomaly": 28.3526,
        "meta_ephemeris_type": 0,
        "meta_classification_type": "U",
        "meta_norad_cat_id": 31010,
        "meta_element_set_no": 999,
        "meta_rev_at_epoch": 95756,
        "meta_bstar": 0.0025084,
        "meta_mean_motion_dot": 6.333e-05,
        "meta_mean_motion_ddot": 0,
        "tle_line1": "1 31010U 99025BDC 25355.64541094  .00006333  00000+0  25084-2 0  9998",
        "tle_line2": "2 31010 101.7249 145.6192 0113533 331.1393  28.3526 14.25926133957562"
      },
      "geometry": {
        "type": "Point",
        "coordinates": [
          -36.67685791641116,
          -18.708550314117446
        ]
      }
    },
    {
      "type": "Feature",
      "properties": {
        "norad_id": 31012,
        "name": "FENGYUN 1C DEB",
        "group": "fengyun-1c-debris",
        "lat": 13.218204223231783,
        "lon": -106.85915603354348,
        "alt_km": 851.4695760810864,
        "timestamp": "2025-12-22T22:44:21.255489+00:00",
        "meta_object_name": "FENGYUN 1C DEB",
        "meta_object_id": "1999-025BDE",
        "meta_epoch": "2025-12-22T13:10:01.079904",
        "meta_mean_motion": 14.27871512,
        "meta_eccentricity": 0.00814969,
        "meta_inclination": 98.9114,
        "meta_ra_of_asc_node": 254.8461,
        "meta_arg_of_pericenter": 222.6077,
        "meta_mean_anomaly": 261.4074,
        "meta_ephemeris_type": 0,
        "meta_classification_type": "U",
        "meta_norad_cat_id": 31012,
        "meta_element_set_no": 999,
        "meta_rev_at_epoch": 97887,
        "meta_bstar": 0.00015300223,
        "meta_mean_motion_dot": 3.46e-06,
        "meta_mean_motion_ddot": 0,
        "tle_line1": "1 31012U 99025BDE 25356.54862361  .00000346  00000+0  15300-3 0  9992",
        "tle_line2": "2 31012  98.9114 254.8461 0081496 222.6077 261.4074 14.27871512978876"
      },
      "geometry": {
        "type": "Point",
        "coordinates": [
          -106.85915603354348,
          13.218204223231783
        ]
      }
    },
    {
      "type": "Feature",
      "properties": {
        "norad_id": 31014,
        "name": "FENGYUN 1C DEB",
        "group": "fengyun-1c-debris",
        "lat": -80.76736365609875,
        "lon": 46.0860421846001,
        "alt_km": 924.9003274980041,
        "timestamp": "2025-12-22T22:44:21.255500+00:00",
        "meta_object_name": "FENGYUN 1C DEB",
        "meta_object_id": "1999-025BDG",
        "meta_epoch": "2025-12-21T21:32:52.748736",
        "meta_mean_motion": 13.98493534,
        "meta_eccentricity": 0.0088324,
        "meta_inclination": 98.8694,
        "meta_ra_of_asc_node": 331.2063,
        "meta_arg_of_pericenter": 168.2006,
        "meta_mean_anomaly": 221.8264,
        "meta_ephemeris_type": 0,
        "meta_classification_type": "U",
        "meta_norad_cat_id": 31014,
        "meta_element_set_no": 999,
        "meta_rev_at_epoch": 95964,
        "meta_bstar": -6.4447461e-05,
        "meta_mean_motion_dot": -1.38e-06,
        "meta_mean_motion_ddot": 0,
        "tle_line1": "1 31014U 99025BDG 25355.89783274 -.00000138  00000+0 -64447-4 0  9994",
        "tle_line2": "2 31014  98.8694 331.2063 0088324 168.2006 221.8264 13.98493534959648"
      },
      "geometry": {
        "type": "Point",
        "coordinates": [
          46.0860421846001,
          -80.76736365609875
        ]
      }
    },
    {
      "type": "Feature",
      "properties": {
        "norad_id": 31016,
        "name": "FENGYUN 1C DEB",
        "group": "fengyun-1c-debris",
        "lat": 60.27841278250346,
        "lon": -152.4635053947462,
        "alt_km": 829.8456637777035,
        "timestamp": "2025-12-22T22:44:21.255510+00:00",
        "meta_object_name": "FENGYUN 1C DEB",
        "meta_object_id": "1999-025BDJ",
        "meta_epoch": "2025-12-22T07:07:44.465952",
        "meta_mean_motion": 14.30509253,
        "meta_eccentricity": 0.01120849,
        "meta_inclination": 98.4358,
        "meta_ra_of_asc_node": 11.8386,
        "meta_arg_of_pericenter": 245.6521,
        "meta_mean_anomaly": 126.2907,
        "meta_ephemeris_type": 0,
        "meta_classification_type": "U",
        "meta_norad_cat_id": 31016,
        "meta_element_set_no": 999,
        "meta_rev_at_epoch": 97607,
        "meta_bstar": 0.00025324272,
        "meta_mean_motion_dot": 6.62e-06,
        "meta_mean_motion_ddot": 0,
        "tle_line1": "1 31016U 99025BDJ 25356.29704243  .00000662  00000+0  25324-3 0  9990",
        "tle_line2": "2 31016  98.4358  11.8386 0112084 245.6521 126.2907 14.30509253976076"
      },
      "geometry": {
        "type": "Point",
        "coordinates": [
          -152.4635053947462,
          60.27841278250346
        ]
      }
    }
  ]
}